SL-16 R/B               
1 26070U 00006B   26157.60888316 -.00000146  00000+0 -49904-4 0  9994
2 26070  71.0034 270.8671 0015006  39.8042 320.4179 14.15837134361149
TITAN 4B R/B            
1 26474U 00047B   26157.92685292  .00003519  00000+0  21839-3 0  9991
2 26474  67.9877 149.4526 0045511 297.4319  62.2205 15.10137507406389
ENVISAT                 
1 27386U 02009A   26157.48304270  .00000113  00000+0  50473-4 0  9993
2 27386  98.3830 109.0406 0001329  91.0694  27.1263 14.39062351271941
IDEFIX & ARIANE 42P R/B 
1 27422U 02021B   26157.57206554  .00000248  00000+0  11090-3 0  9994
2 27422  98.5941  95.1704 0010642 288.5791  71.4235 14.31077154256732
AQUA                    
1 27424U 02022A   26157.86210311  .00000870  00000+0  18286-3 0  9990
2 27424  98.4272 126.9391 0001506  55.3541  29.1016 14.62142370281762
CZ-4B R/B               
1 27432U 02024C   26157.64092704  .00000050  00000+0  48237-4 0  9991
2 27432  98.8703 210.5289 0051007 129.5946 344.9197 14.14562687241818
MIDORI II (ADEOS-II)    
1 27597U 02056A   26157.63780710  .00000303  00000+0  13688-3 0  9990
2 27597  98.7873 116.8083 0002211  91.6714 268.4721 14.29343868223000
H-2A R/B                
1 27601U 02056E   26157.63582756  .00000231  00000+0  95605-4 0  9996
2 27601  98.3308 114.6950 0068876 256.5066 277.2195 14.33817570226855
CZ-4B R/B               
1 28059U 03049C   26157.71037629  .00000364  00000+0  94928-4 0  9994
2 28059  98.6896 156.1399 0047352 321.2391  38.5411 14.55093185199549
CZ-2C R/B               
1 28222U 04012C   26157.37962722  .00122901  00000+0  75160-3 0  9998
2 28222  97.7089 231.8036 0008825 332.1519  27.9272 15.76941093218193
SL-16 R/B               
1 28353U 04021B   26157.41307141 -.00000166  00000+0 -61348-4 0  9990
2 28353  71.0024  46.3008 0007476 267.0875  92.9392 14.14612822135382
CZ-4B R/B               
1 28415U 04035C   26157.67214399  .00009079  00000+0  30615-3 0  9996
2 28415  97.3371 190.8652 0031236  15.7592 344.4614 15.30469234193519
CZ-2C R/B               
1 28480U 04046B   26157.67398577  .00000094  00000+0  50480-4 0  9992
2 28480  98.1952  67.1111 0138116 251.5842 107.0282 14.27024295121192
